{
  "type": "FeatureCollection",
  "features": [
    {
      "type": "Feature",
      "properties": {
        "norad_id": 58701,
        "name": "TIANMU-1 16",
        "group": "weather",
        "lat": 35.14181536194603,
        "lon": 7.6469389344358705,
        "alt_km": 489.3096288808756,
        "timestamp": "2025-12-27T13:34:48.933374+00:00",
        "meta_object_name": "TIANMU-1 16",
        "meta_object_id": "2024-004B",
        "meta_epoch": "2025-12-27T06:38:52.382688",
        "meta_mean_motion": 15.24632193,
        "meta_eccentricity": 0.00044864,
        "meta_inclination": 97.4571,
        "meta_ra_of_asc_node": 182.0693,
        "meta_arg_of_pericenter": 229.9673,
        "meta_mean_anomaly": 130.1172,
        "meta_ephemeris_type": 0,
        "meta_classification_type": "U",
        "meta_norad_cat_id": 58701,
        "meta_element_set_no": 999,
        "meta_rev_at_epoch": 10956,
        "meta_bstar": 0.00034578259,
        "meta_mean_motion_dot": 8.466e-05,
        "meta_mean_motion_ddot": 0,
        "tle_line1": "1 58701U 24004B   25361.27699517  .00008466  00000+0  34578-3 0  9997",
        "tle_line2": "2 58701  97.4571 182.0693 0004486 229.9673 130.1172 15.24632193109567"
      },
      "geometry": {
        "type": "Point",
        "coordinates": [
          7.6469389344358705,
          35.14181536194603
        ]
      }
    },
    {
      "type": "Feature",
      "properties": {
        "norad_id": 58702,
        "name": "TIANMU-1 17",
        "group": "weather",
        "lat": -50.771178327699076,
        "lon": -6.461917339634961,
        "alt_km": 496.19996568859005,
        "timestamp": "2025-12-27T13:34:48.933385+00:00",
        "meta_object_name": "TIANMU-1 17",
        "meta_object_id": "2024-004C",
        "meta_epoch": "2025-12-27T07:50:36.083328",
        "meta_mean_motion": 15.24675258,
        "meta_eccentricity": 0.00036715,
        "meta_inclination": 97.4605,
        "meta_ra_of_asc_node": 182.5365,
        "meta_arg_of_pericenter": 229.9445,
        "meta_mean_anomaly": 130.1471,
        "meta_ephemeris_type": 0,
        "meta_classification_type": "U",
        "meta_norad_cat_id": 58702,
        "meta_element_set_no": 999,
        "meta_rev_at_epoch": 10956,
        "meta_bstar": 0.00033460566,
        "meta_mean_motion_dot": 8.2e-05,
        "meta_mean_motion_ddot": 0,
        "tle_line1": "1 58702U 24004C   25361.32680652  .00008200  00000+0  33461-3 0  9990",
        "tle_line2": "2 58702  97.4605 182.5365 0003671 229.9445 130.1471 15.24675258109560"
      },
      "geometry": {
        "type": "Point",
        "coordinates": [
          -6.461917339634961,
          -50.771178327699076
        ]
      }
    },
    {
      "type": "Feature",
      "properties": {
        "norad_id": 58703,
        "name": "TIANMU-1 18",
        "group": "weather",
        "lat": -37.69377304410062,
        "lon": -171.21401922188116,
        "alt_km": 498.52683635659196,
        "timestamp": "2025-12-27T13:34:48.933395+00:00",
        "meta_object_name": "TIANMU-1 18",
        "meta_object_id": "2024-004D",
        "meta_epoch": "2025-12-27T07:26:47.213952",
        "meta_mean_motion": 15.24657204,
        "meta_eccentricity": 0.00030678,
        "meta_inclination": 97.4622,
        "meta_ra_of_asc_node": 182.7184,
        "meta_arg_of_pericenter": 226.1069,
        "meta_mean_anomaly": 133.9916,
        "meta_ephemeris_type": 0,
        "meta_classification_type": "U",
        "meta_norad_cat_id": 58703,
        "meta_element_set_no": 999,
        "meta_rev_at_epoch": 10956,
        "meta_bstar": 0.00031593372,
        "meta_mean_motion_dot": 7.733e-05,
        "meta_mean_motion_ddot": 0,
        "tle_line1": "1 58703U 24004D   25361.31026868  .00007733  00000+0  31593-3 0  9997",
        "tle_line2": "2 58703  97.4622 182.7184 0003067 226.1069 133.9916 15.24657204109567"
      },
      "geometry": {
        "type": "Point",
        "coordinates": [
          -171.21401922188116,
          -37.69377304410062
        ]
      }
    },
    {
      "type": "Feature",
      "properties": {
        "norad_id": 58990,
        "name": "INSAT-3DS",
        "group": "weather",
        "lat": -0.056451235106935706,
        "lon": 22.110898937521533,
        "alt_km": 35787.94072819221,
        "timestamp": "2025-12-27T13:34:48.933407+00:00",
        "meta_object_name": "INSAT-3DS",
        "meta_object_id": "2024-033A",
        "meta_epoch": "2025-12-27T03:07:12.485568",
        "meta_mean_motion": 1.00270739,
        "meta_eccentricity": 0.00013755,
        "meta_inclination": 0.0646,
        "meta_ra_of_asc_node": 98.7441,
        "meta_arg_of_pericenter": 178.0436,
        "meta_mean_anomaly": 307.9854,
        "meta_ephemeris_type": 0,
        "meta_classification_type": "U",
        "meta_norad_cat_id": 58990,
        "meta_element_set_no": 999,
        "meta_rev_at_epoch": 4534,
        "meta_bstar": 0,
        "meta_mean_motion_dot": -1.34e-06,
        "meta_mean_motion_ddot": 0,
        "tle_line1": "1 58990U 24033A   25361.13000562 -.00000134  00000+0  00000+0 0  9994",
        "tle_line2": "2 58990   0.0646  98.7441 0001375 178.0436 307.9854  1.00270739 45348"
      },
      "geometry": {
        "type": "Point",
        "coordinates": [
          22.110898937521533,
          -0.056451235106935706
        ]
      }
    },
    {
      "type": "Feature",
      "properties": {
        "norad_id": 59051,
        "name": "METEOR-M2 4",
        "group": "weather",
        "lat": 80.64539384476521,
        "lon": -153.7573138175154,
        "alt_km": 813.2709295421573,
        "timestamp": "2025-12-27T13:34:48.933420+00:00",
        "meta_object_name": "METEOR-M2 4",
        "meta_object_id": "2024-039A",
        "meta_epoch": "2025-12-27T06:23:21.946272",
        "meta_mean_motion": 14.22403555,
        "meta_eccentricity": 0.00063045,
        "meta_inclination": 98.6787,
        "meta_ra_of_asc_node": 317.9488,
        "meta_arg_of_pericenter": 314.3636,
        "meta_mean_anomaly": 45.7025,
        "meta_ephemeris_type": 0,
        "meta_classification_type": "U",
        "meta_norad_cat_id": 59051,
        "meta_element_set_no": 999,
        "meta_rev_at_epoch": 9482,
        "meta_bstar": 4.3115316e-05,
        "meta_mean_motion_dot": 5.2e-07,
        "meta_mean_motion_ddot": 0,
        "tle_line1": "1 59051U 24039A   25361.26622623  .00000052  00000+0  43115-4 0  9998",
        "tle_line2": "2 59051  98.6787 317.9488 0006304 314.3636  45.7025 14.22403555 94823"
      },
      "geometry": {
        "type": "Point",
        "coordinates": [
          -153.7573138175154,
          80.64539384476521
        ]
      }
    },
    {
      "type": "Feature",
      "properties": {
        "norad_id": 60133,
        "name": "GOES 19",
        "group": "weather",
        "lat": -0.002072737832340401,
        "lon": -135.21589499145654,
        "alt_km": 35786.90647450076,
        "timestamp": "2025-12-27T13:34:48.933442+00:00",
        "meta_object_name": "GOES 19",
        "meta_object_id": "2024-119A",
        "meta_epoch": "2025-12-27T05:45:33.756192",
        "meta_mean_motion": 1.00270004,
        "meta_eccentricity": 0.00011561,
        "meta_inclination": 0.0128,
        "meta_ra_of_asc_node": 247.426,
        "meta_arg_of_pericenter": 71.0215,
        "meta_mean_anomaly": 148.7249,
        "meta_ephemeris_type": 0,
        "meta_classification_type": "U",
        "meta_norad_cat_id": 60133,
        "meta_element_set_no": 999,
        "meta_rev_at_epoch": 524,
        "meta_bstar": 0,
        "meta_mean_motion_dot": -2.26e-06,
        "meta_mean_motion_ddot": 0,
        "tle_line1": "1 60133U 24119A   25361.23997403 -.00000226  00000+0  00000+0 0  9993",
        "tle_line2": "2 60133   0.0128 247.4260 0001156  71.0215 148.7249  1.00270004  5240"
      },
      "geometry": {
        "type": "Point",
        "coordinates": [
          -135.21589499145654,
          -0.002072737832340401
        ]
      }
    },
    {
      "type": "Feature",
      "properties": {
        "norad_id": 65815,
        "name": "FENGYUN 3H",
        "group": "weather",
        "lat": -19.182019421000934,
        "lon": 117.7963010692882,
        "alt_km": 830.7111170495182,
        "timestamp": "2025-12-27T13:34:48.933460+00:00",
        "meta_object_name": "FENGYUN 3H",
        "meta_object_id": "2025-219A",
        "meta_epoch": "2025-12-27T05:52:47.393472",
        "meta_mean_motion": 14.19908679,
        "meta_eccentricity": 8.841e-05,
        "meta_inclination": 98.6603,
        "meta_ra_of_asc_node": 300.5217,
        "meta_arg_of_pericenter": 109.7825,
        "meta_mean_anomaly": 250.3447,
        "meta_ephemeris_type": 0,
        "meta_classification_type": "U",
        "meta_norad_cat_id": 65815,
        "meta_element_set_no": 999,
        "meta_rev_at_epoch": 1298,
        "meta_bstar": 7.8072487e-05,
        "meta_mean_motion_dot": 1.23e-06,
        "meta_mean_motion_ddot": 0,
        "tle_line1": "1 65815U 25219A   25361.24499298  .00000123  00000+0  78072-4 0  9991",
        "tle_line2": "2 65815  98.6603 300.5217 0000884 109.7825 250.3447 14.19908679 12988"
      },
      "geometry": {
        "type": "Point",
        "coordinates": [
          117.7963010692882,
          -19.182019421000934
        ]
      }
    }
  ]
}